STARLINK-36188          
1 67122U 25299W   26005.25002315 -.00064973  00000+0 -11102-2 0  9993
2 67122  43.0000 174.3682 0001569 262.6661  35.8525 15.50596422  4582
STARLINK-36151          
1 67123U 25299X   26005.25002315 -.02053777  00000+0 -48288-1 0  9990
2 67123  43.0005 174.4120 0001277 263.1668  17.8896 15.44739416  4581
STARLINK-36195          
1 67124U 25299Y   26005.25002315 -.00782329  00000+0 -14349-1 0  9992
2 67124  42.9998 174.3630 0001973 270.5492  29.8193 15.50867503  4585
STARLINK-36219          
1 67125U 25299Z   26005.25002315 -.00125737  00000+0 -21690-2 0  9995
2 67125  42.9999 174.3586 0001476 269.0296  33.3240 15.50617971  4585
STARLINK-36223          
1 67126U 25299AA  26005.25002315 -.00148587  00000+0 -25687-2 0  9994
2 67126  42.9999 174.3530 0001776 263.9984  40.2454 15.50649311  4582
STARLINK-36164          
1 67127U 25299AB  26005.25002315 -.00109156  00000+0 -18787-2 0  9997
2 67127  42.9999 174.3490 0001881 263.2069  42.9836 15.50608864  4583
STARLINK-35685          
1 67128U 25299AC  26005.25002315 -.02056198  00000+0 -46367-1 0  9991
2 67128  42.9999 174.3597 0001339 264.4839  36.9648 15.45949712  4586
STARLINK-36214          
1 67129U 25299AD  26005.25002315 -.00130329  00000+0 -22494-2 0  9995
2 67129  43.0001 174.3441 0001446 276.5024  31.5992 15.50621631  4586
STARLINK-36194          
1 67130U 25299AE  26005.25002315 -.00117849  00000+0 -20307-2 0  9990
2 67130  43.0001 174.3358 0001509 267.9546  43.9830 15.50615770  4583
ZIYUAN 3-04 (ZY 3-04)   
1 67131U 25300A   25361.09375736  .00002035  00000+0  94249-4 0  9996
2 67131  97.4921  75.1314 0003125 152.4137 207.7265 15.21251311  1672
CZ-4B R/B               
1 67132U 25300B   25365.84118213  .00055316  31762-5  24195-3 0  9996
2 67132  97.5610  81.0876 0162680 319.8916  39.0424 15.67589119  2465
KUIPER-00144            
1 67133U 25301A   26005.26559544  .00450531  00000+0  11791-1 0  9991
2 67133  51.8713  11.6736 0005196 163.3405 196.7753 15.36364497  3980
