CCSDS_OMM_VERS = 2.0
CREATION_DATE  = 
ORIGINATOR     = 

OBJECT_NAME    = STARLINK-36188
OBJECT_ID      = 2025-299W
CENTER_NAME    = EARTH
REF_FRAME      = TEME
TIME_SYSTEM    = UTC
MEAN_ELEMENT_THEORY = SGP/SGP4

EPOCH          = 2026-01-05T06:00:02.000160
MEAN_MOTION    = 15.50596422
ECCENTRICITY   = .00015698
INCLINATION    = 43.0000
RA_OF_ASC_NODE = 174.3682
ARG_OF_PERICENTER = 262.6661
MEAN_ANOMALY   = 35.8525

EPHEMERIS_TYPE = 0
CLASSIFICATION_TYPE = U
NORAD_CAT_ID   = 67122
ELEMENT_SET_NO = 999
REV_AT_EPOCH   = 458
BSTAR          = -.11101763E-2
MEAN_MOTION_DOT = -.64973E-3
MEAN_MOTION_DDOT = 0

CCSDS_OMM_VERS = 2.0
CREATION_DATE  = 
ORIGINATOR     = 

OBJECT_NAME    = STARLINK-36151
OBJECT_ID      = 2025-299X
CENTER_NAME    = EARTH
REF_FRAME      = TEME
TIME_SYSTEM    = UTC
MEAN_ELEMENT_THEORY = SGP/SGP4

EPOCH          = 2026-01-05T06:00:02.000160
MEAN_MOTION    = 15.44739416
ECCENTRICITY   = .00012772
INCLINATION    = 43.0005
RA_OF_ASC_NODE = 174.4120
ARG_OF_PERICENTER = 263.1668
MEAN_ANOMALY   = 17.8896

EPHEMERIS_TYPE = 0
CLASSIFICATION_TYPE = U
NORAD_CAT_ID   = 67123
ELEMENT_SET_NO = 999
REV_AT_EPOCH   = 458
BSTAR          = -.48287518E-1
MEAN_MOTION_DOT = -.2053777E-1
MEAN_MOTION_DDOT = 0

CCSDS_OMM_VERS = 2.0
CREATION_DATE  = 
ORIGINATOR     = 

OBJECT_NAME    = STARLINK-36195
OBJECT_ID      = 2025-299Y
CENTER_NAME    = EARTH
REF_FRAME      = TEME
TIME_SYSTEM    = UTC
MEAN_ELEMENT_THEORY = SGP/SGP4

EPOCH          = 2026-01-05T06:00:02.000160
MEAN_MOTION    = 15.50867503
ECCENTRICITY   = .00019736
INCLINATION    = 42.9998
RA_OF_ASC_NODE = 174.3630
ARG_OF_PERICENTER = 270.5492
MEAN_ANOMALY   = 29.8193

EPHEMERIS_TYPE = 0
CLASSIFICATION_TYPE = U
NORAD_CAT_ID   = 67124
ELEMENT_SET_NO = 999
REV_AT_EPOCH   = 458
BSTAR          = -.14348533E-1
MEAN_MOTION_DOT = -.782329E-2
MEAN_MOTION_DDOT = 0

CCSDS_OMM_VERS = 2.0
CREATION_DATE  = 
ORIGINATOR     = 

OBJECT_NAME    = STARLINK-36219
OBJECT_ID      = 2025-299Z
CENTER_NAME    = EARTH
REF_FRAME      = TEME
TIME_SYSTEM    = UTC
MEAN_ELEMENT_THEORY = SGP/SGP4

EPOCH          = 2026-01-05T06:00:02.000160
MEAN_MOTION    = 15.50617971
ECCENTRICITY   = .00014766
INCLINATION    = 42.9999
RA_OF_ASC_NODE = 174.3586
ARG_OF_PERICENTER = 269.0296
MEAN_ANOMALY   = 33.3240

EPHEMERIS_TYPE = 0
CLASSIFICATION_TYPE = U
NORAD_CAT_ID   = 67125
ELEMENT_SET_NO = 999
REV_AT_EPOCH   = 458
BSTAR          = -.21689595E-2
MEAN_MOTION_DOT = -.125737E-2
MEAN_MOTION_DDOT = 0

CCSDS_OMM_VERS = 2.0
CREATION_DATE  = 
ORIGINATOR     = 

OBJECT_NAME    = STARLINK-36223
OBJECT_ID      = 2025-299AA
CENTER_NAME    = EARTH
REF_FRAME      = TEME
TIME_SYSTEM    = UTC
MEAN_ELEMENT_THEORY = SGP/SGP4

EPOCH          = 2026-01-05T06:00:02.000160
MEAN_MOTION    = 15.50649311
ECCENTRICITY   = .00017764
INCLINATION    = 42.9999
RA_OF_ASC_NODE = 174.3530
ARG_OF_PERICENTER = 263.9984
MEAN_ANOMALY   = 40.2454

EPHEMERIS_TYPE = 0
CLASSIFICATION_TYPE = U
NORAD_CAT_ID   = 67126
ELEMENT_SET_NO = 999
REV_AT_EPOCH   = 458
BSTAR          = -.25686746E-2
MEAN_MOTION_DOT = -.148587E-2
MEAN_MOTION_DDOT = 0

CCSDS_OMM_VERS = 2.0
CREATION_DATE  = 
ORIGINATOR     = 

OBJECT_NAME    = STARLINK-36164
OBJECT_ID      = 2025-299AB
CENTER_NAME    = EARTH
REF_FRAME      = TEME
TIME_SYSTEM    = UTC
MEAN_ELEMENT_THEORY = SGP/SGP4

EPOCH          = 2026-01-05T06:00:02.000160
MEAN_MOTION    = 15.50608864
ECCENTRICITY   = .00018811
INCLINATION    = 42.9999
RA_OF_ASC_NODE = 174.3490
ARG_OF_PERICENTER = 263.2069
MEAN_ANOMALY   = 42.9836

EPHEMERIS_TYPE = 0
CLASSIFICATION_TYPE = U
NORAD_CAT_ID   = 67127
ELEMENT_SET_NO = 999
REV_AT_EPOCH   = 458
BSTAR          = -.1878732E-2
MEAN_MOTION_DOT = -.109156E-2
MEAN_MOTION_DDOT = 0

CCSDS_OMM_VERS = 2.0
CREATION_DATE  = 
ORIGINATOR     = 

OBJECT_NAME    = STARLINK-35685
OBJECT_ID      = 2025-299AC
CENTER_NAME    = EARTH
REF_FRAME      = TEME
TIME_SYSTEM    = UTC
MEAN_ELEMENT_THEORY = SGP/SGP4

EPOCH          = 2026-01-05T06:00:02.000160
MEAN_MOTION    = 15.45949712
ECCENTRICITY   = .00013394
INCLINATION    = 42.9999
RA_OF_ASC_NODE = 174.3597
ARG_OF_PERICENTER = 264.4839
MEAN_ANOMALY   = 36.9648

EPHEMERIS_TYPE = 0
CLASSIFICATION_TYPE = U
NORAD_CAT_ID   = 67128
ELEMENT_SET_NO = 999
REV_AT_EPOCH   = 458
BSTAR          = -.4636677E-1
MEAN_MOTION_DOT = -.2056198E-1
MEAN_MOTION_DDOT = 0

CCSDS_OMM_VERS = 2.0
CREATION_DATE  = 
ORIGINATOR     = 

OBJECT_NAME    = STARLINK-36214
OBJECT_ID      = 2025-299AD
CENTER_NAME    = EARTH
REF_FRAME      = TEME
TIME_SYSTEM    = UTC
MEAN_ELEMENT_THEORY = SGP/SGP4

EPOCH          = 2026-01-05T06:00:02.000160
MEAN_MOTION    = 15.50621631
ECCENTRICITY   = .00014466
INCLINATION    = 43.0001
RA_OF_ASC_NODE = 174.3441
ARG_OF_PERICENTER = 276.5024
MEAN_ANOMALY   = 31.5992

EPHEMERIS_TYPE = 0
CLASSIFICATION_TYPE = U
NORAD_CAT_ID   = 67129
ELEMENT_SET_NO = 999
REV_AT_EPOCH   = 458
BSTAR          = -.22494243E-2
MEAN_MOTION_DOT = -.130329E-2
MEAN_MOTION_DDOT = 0

CCSDS_OMM_VERS = 2.0
CREATION_DATE  = 
ORIGINATOR     = 

OBJECT_NAME    = STARLINK-36194
OBJECT_ID      = 2025-299AE
CENTER_NAME    = EARTH
REF_FRAME      = TEME
TIME_SYSTEM    = UTC
MEAN_ELEMENT_THEORY = SGP/SGP4

EPOCH          = 2026-01-05T06:00:02.000160
MEAN_MOTION    = 15.50615770
ECCENTRICITY   = .00015091
INCLINATION    = 43.0001
RA_OF_ASC_NODE = 174.3358
ARG_OF_PERICENTER = 267.9546
MEAN_ANOMALY   = 43.9830

EPHEMERIS_TYPE = 0
CLASSIFICATION_TYPE = U
NORAD_CAT_ID   = 67130
ELEMENT_SET_NO = 999
REV_AT_EPOCH   = 458
BSTAR          = -.20306503E-2
MEAN_MOTION_DOT = -.117849E-2
MEAN_MOTION_DDOT = 0

CCSDS_OMM_VERS = 2.0
CREATION_DATE  = 
ORIGINATOR     = 

OBJECT_NAME    = ZIYUAN 3-04 (ZY 3-04)
OBJECT_ID      = 2025-300A
CENTER_NAME    = EARTH
REF_FRAME      = TEME
TIME_SYSTEM    = UTC
MEAN_ELEMENT_THEORY = SGP/SGP4

EPOCH          = 2025-12-27T02:15:00.635904
MEAN_MOTION    = 15.21251311
ECCENTRICITY   = .00031253
INCLINATION    = 97.4921
RA_OF_ASC_NODE = 75.1314
ARG_OF_PERICENTER = 152.4137
MEAN_ANOMALY   = 207.7265

EPHEMERIS_TYPE = 0
CLASSIFICATION_TYPE = U
NORAD_CAT_ID   = 67131
ELEMENT_SET_NO = 999
REV_AT_EPOCH   = 167
BSTAR          = .94249032E-4
MEAN_MOTION_DOT = .2035E-4
MEAN_MOTION_DDOT = 0

CCSDS_OMM_VERS = 2.0
CREATION_DATE  = 
ORIGINATOR     = 

OBJECT_NAME    = CZ-4B R/B
OBJECT_ID      = 2025-300B
CENTER_NAME    = EARTH
REF_FRAME      = TEME
TIME_SYSTEM    = UTC
MEAN_ELEMENT_THEORY = SGP/SGP4

EPOCH          = 2025-12-31T20:11:18.136032
MEAN_MOTION    = 15.67589119
ECCENTRICITY   = .01626808
INCLINATION    = 97.5610
RA_OF_ASC_NODE = 81.0876
ARG_OF_PERICENTER = 319.8916
MEAN_ANOMALY   = 39.0424

EPHEMERIS_TYPE = 0
CLASSIFICATION_TYPE = U
NORAD_CAT_ID   = 67132
ELEMENT_SET_NO = 999
REV_AT_EPOCH   = 246
BSTAR          = .24194627E-3
MEAN_MOTION_DOT = .55316E-3
MEAN_MOTION_DDOT = .317617E-5

CCSDS_OMM_VERS = 2.0
CREATION_DATE  = 
ORIGINATOR     = 

OBJECT_NAME    = KUIPER-00144
OBJECT_ID      = 2025-301A
CENTER_NAME    = EARTH
REF_FRAME      = TEME
TIME_SYSTEM    = UTC
MEAN_ELEMENT_THEORY = SGP/SGP4

EPOCH          = 2026-01-05T06:22:27.446016
MEAN_MOTION    = 15.36364497
ECCENTRICITY   = .00051967
INCLINATION    = 51.8713
RA_OF_ASC_NODE = 11.6736
ARG_OF_PERICENTER = 163.3405
MEAN_ANOMALY   = 196.7753

EPHEMERIS_TYPE = 0
CLASSIFICATION_TYPE = U
NORAD_CAT_ID   = 67133
ELEMENT_SET_NO = 999
REV_AT_EPOCH   = 398
BSTAR          = .11790672E-1
MEAN_MOTION_DOT = .450531E-2
MEAN_MOTION_DDOT = 0

